ONEWEB-0716             
1 55177U 23004AP  25017.74229865  .00000024  00000+0  27557-4 0  9997
2 55177  87.9095 108.5789 0001572 110.2719 249.8581 13.17648473 99705
ONEWEB-0717             
1 55178U 23004AQ  25017.80136181  .00000000  00000+0 -34033-4 0  9995
2 55178  87.9094 108.5282 0002245  86.4425 273.6963 13.17646680 99762
ONEWEB-0719             
1 55179U 23004AR  25017.73554572  .00000001  00000+0 -30932-4 0  9991
2 55179  87.9092 108.5263 0001507 104.0745 256.0554 13.17648782 99702
ONEWEB-0530             
1 55796U 23029A   25017.94427327  .00000085  00000+0  17804-3 0  9996
2 55796  87.9254  16.9899 0001921  69.2372 290.8967 13.20771702 93130
ONEWEB-0534             
1 55797U 23029B   25017.93165000  .00000071  00000+0  14325-3 0  9993
2 55797  87.9253  16.9999 0001663  89.1020 271.0304 13.20773157 93137
ONEWEB-0556             
1 55798U 23029C   25017.93796230  .00000103  00000+0  22063-3 0  9993
2 55798  87.9254  16.9912 0001248  62.3600 297.7660 13.20772919 93135
ONEWEB-0562             
1 55799U 23029D   25017.92533553  .00000051  00000+0  93574-4 0  9998
2 55799  87.9253  16.9859 0001793  54.4410 305.6891 13.20773394 93134
ONEWEB-0563             
1 55800U 23029E   25017.91902038  .00000053  00000+0  99424-4 0  9990
2 55800  87.9253  17.0018 0001488  96.4929 263.6373 13.20773724 93122
